[{"OBJECT_NAME":"DONGPO 08","OBJECT_ID":"2022-167E","EPOCH":"2026-03-09T22:57:52.742880","MEAN_MOTION":15.31542505,"ECCENTRICITY":0.00092155,"INCLINATION":97.6764,"RA_OF_ASC_NODE":233.3854,"ARG_OF_PERICENTER":153.9158,"MEAN_ANOMALY":206.2548,"EPHEMERIS_TYPE":0,"CLASSIFICATION_TYPE":"U","NORAD_CAT_ID":54686,"ELEMENT_SET_NO":999,"REV_AT_EPOCH":18012,"BSTAR":0.0004734784,"MEAN_MOTION_DOT":0.0001437,"MEAN_MOTION_DDOT":0},{"OBJECT_NAME":"STARLINK-30968","OBJECT_ID":"2023-191D","EPOCH":"2026-03-08T11:40:25.493088","MEAN_MOTION":15.27274459,"ECCENTRICITY":7.244e-5,"INCLINATION":42.9987,"RA_OF_ASC_NODE":110.54,"ARG_OF_PERICENTER":278.4439,"MEAN_ANOMALY":81.633,"EPHEMERIS_TYPE":0,"CLASSIFICATION_TYPE":"U","NORAD_CAT_ID":58511,"ELEMENT_SET_NO":999,"REV_AT_EPOCH":12528,"BSTAR":0.0021481981,"MEAN_MOTION_DOT":0.00058773,"MEAN_MOTION_DDOT":0}]
